STARLINK-35973          
1 66632C 25271R   26091.61784722  .00009585  00000+0  32306-3 0   911
2 66632  53.1591  33.4276 0001267  98.3014  28.8663 15.30184409    14
STARLINK-35948          
1 66633C 25271S   26091.56715278 -.00027160  00000+0 -91541-3 0   913
2 66633  53.1593  33.6288 0001136  87.2029 137.9872 15.30204771    19
STARLINK-35967          
1 66634C 25271T   26091.60326389 -.00000971  00000+0 -32737-4 0   914
2 66634  53.1597  33.3693 0001262  98.4885  12.2774 15.30191163    11
STARLINK-35955          
1 66635C 25271U   26091.64006944  .00031382  00000+0  10578-2 0   916
2 66635  53.1594  33.4490 0001163  97.7060  87.9594 15.30171683    16
STARLINK-35968          
1 66636C 25271V   26091.58173611 -.00012570  00000+0 -42371-3 0   913
2 66636  53.1602  33.7894 0001200  99.8345  89.4127 15.30194949    18
STARLINK-35953          
1 66637C 25271W   26091.54145833 -.00017916  00000+0 -60391-3 0   916
2 66637  53.1592  33.8031 0001289  95.6683 318.8204 15.30195844    17
STARLINK-35972          
1 66638C 25271X   26091.54562500 -.00015826  00000+0 -53349-3 0   914
2 66638  53.1609  34.0244 0001380  91.2622 224.0481 15.30193535    13
STARLINK-35908          
1 66639C 25271Y   26091.66368056  .00025490  00000+0  85921-3 0   915
2 66639  53.1591  33.2905 0001248 106.2850 232.7995 15.30175465    10
STARLINK-35921          
1 66640C 25271Z   26091.59770833  .00005775  00000+0  19467-3 0   915
2 66640  53.1604  33.2182 0001138 108.9151  58.4770 15.30184689    17
STARLINK-35923          
1 66641C 25271AA  26091.55326389 -.00043947  00000+0 -14813-2 0   919
2 66641  53.1612  34.0767 0001386  95.2564 215.6315 15.30210833    19
STARLINK-35926          
1 66642C 25271AB  26091.58798611  .00031916  00000+0  10766-2 0   918
2 66642  53.1605  33.7892 0001080 108.0858  98.2113 15.30148698    17
STARLINK-35918          
1 66643C 25271AC  26091.61854167  .00018446  00000+0  62173-3 0   915
2 66643  53.1592  33.3275 0001297  97.9138  79.6085 15.30181383    10
STARLINK-35938          
1 66644C 25271AD  26091.57409722 -.00026383  00000+0 -88938-3 0   912
2 66644  53.1612  33.9465 0001270  88.0551 355.1065 15.30198909    14
STARLINK-35867          
1 66791C 25278A   26091.58520833  .00058361  00000+0  21113-2 0   910
2 66791  43.0028 345.4874 0001738 271.8094 169.6996 15.27588821    17
STARLINK-35990          
1 66792C 25278B   26091.57062500  .00054224  00000+0  19637-2 0   914
2 66792  43.0017 344.9125 0001586 270.5882 359.4623 15.27557181    12
STARLINK-36051          
1 66793C 25278C   26091.57270833  .00053551  00000+0  19400-2 0   915
2 66793  43.0033 345.2597 0001002 256.4046 236.5967 15.27545394    15
STARLINK-36062          
1 66794C 25278D   26091.58451389  .00054090  00000+0  19580-2 0   912
2 66794  43.0035 345.2823 0001640 266.2527 256.3153 15.27570482    14
STARLINK-36047          
1 66795C 25278E   26091.61645833  .00066233  00000+0  23977-2 0   913
2 66795  43.0032 345.0007 0001693 252.0385 128.8645 15.27562162    12
STARLINK-35964          
1 66796C 25278F   26091.54840278  .00058103  00000+0  21036-2 0   917
2 66796  43.0019 330.3730 0001576 265.6746  83.9275 15.27562989    16
STARLINK-36099          
1 66797C 25278G   26091.54840278  .00052686  00000+0  19087-2 0   911
2 66797  43.0027 345.2796 0001838 259.0599 149.6351 15.27544419    10
STARLINK-36041          
1 66798C 25278H   26091.65673611 -.00028925  00000+0 -10486-2 0   914
2 66798  43.0034 344.9048 0001744 268.4917 277.5705 15.27561529    14
STARLINK-36044          
1 66799C 25278J   26091.58868056  .00026615  00000+0  96439-3 0   911
2 66799  43.0015 344.7717 0001813 248.6919 134.9584 15.27551085    11
STARLINK-35996          
1 66800C 25278K   26091.62756944  .00061402  00000+0  22228-2 0   918
2 66800  43.0016 344.4855 0001627 263.3858   2.6313 15.27564415    16
STARLINK-36080          
1 66801C 25278L   26091.54701389  .00045102  00000+0  16329-2 0   917
2 66801  43.0028 345.6803 0001590 276.5846 321.6981 15.27570008    18
STARLINK-35604          
1 66802C 25278M   26091.57618056  .00054234  00000+0  19637-2 0   910
2 66802  43.0035 345.2880 0001806 253.5400 237.3091 15.27562147    19
STARLINK-35565          
1 66803C 25278N   26091.62687500  .00067014  00000+0  24269-2 0   914
2 66803  43.0034 345.0941 0001638 255.2744 119.3187 15.27549186    11
STARLINK-36038          
1 66804C 25278P   26091.57687500  .00058109  00000+0  21036-2 0   913
2 66804  43.0026 344.9325 0001641 262.4842  20.7497 15.27566784    12
STARLINK-36049          
1 66805C 25278Q   26091.59076389 -.00144790  00000+0 -52472-2 0   915
2 66805  43.0033 345.3303 0001604 265.8414 255.8667 15.27631296    14
STARLINK-36069          
1 66806C 25278R   26091.59909722  .00055219  00000+0  19994-2 0   919
2 66806  43.0033 345.3334 0001743 269.1165 277.1501 15.27560967    13
STARLINK-36000          
1 66807C 25278S   26091.54909722  .00049600  00000+0  17974-2 0   918
2 66807  43.0031 345.1382 0001528 277.2821 191.8601 15.27537901    18
STARLINK-36071          
1 66808C 25278T   26091.58312500  .00058951  00000+0  21341-2 0   917
2 66808  43.0024 344.6566 0001814 264.2557 152.4440 15.27565763    10
STARLINK-35979          
1 66809C 25278U   26091.63520833  .00067152  00000+0  24284-2 0   916
2 66809  43.0032 345.1421 0002363 262.7687 115.2839 15.27594922    11
STARLINK-36046          
1 66810C 25278V   26091.60326389  .00064756  00000+0  23410-2 0   912
2 66810  43.0033 345.1196 0001392 268.9282  18.1126 15.27608424    16
STARLINK-36045          
1 66811C 25278W   26091.67340278  .00061249  00000+0  22168-2 0   916
2 66811  43.0030 344.6211 0001242 257.7483  97.9021 15.27572413    16
STARLINK-36054          
1 66812C 25278X   26091.60326389  .00066952  00000+0  24237-2 0   912
2 66812  43.0027 344.9809 0002396 268.4951  75.1452 15.27561274    18
STARLINK-36042          
1 66813C 25278Y   26091.59701389  .00058877  00000+0  21319-2 0   913
2 66813  43.0020 344.6701 0001697 274.9571 175.7622 15.27558700    19
STARLINK-35984          
1 66814C 25278Z   26091.59006944  .00060767  00000+0  21998-2 0   913
2 66814  43.0013 344.7454 0001215 251.5394 146.7945 15.27565766    14
STARLINK-35985          
1 66815C 25278AA  26091.56020833  .00052104  00000+0  18862-2 0   916
2 66815  43.0025 345.1694 0001670 266.5606 221.2574 15.27569597    19
STARLINK-36098          
1 66816C 25278AB  26091.56784722  .00057740  00000+0  20904-2 0   912
2 66816  43.0021 344.7528 0001565 264.9984  60.5058 15.27563631    15
STARLINK-35995          
1 66817C 25278AC  26091.57895833  .00057096  00000+0  20670-2 0   914
2 66817  43.0027 345.0162 0001666 259.8626 352.3951 15.27565586    13
STARLINK-35994          
1 66818C 25278AD  26091.54145833  .00050624  00000+0  18327-2 0   916
2 66818  43.0027 345.2655 0001579 267.3988 124.2503 15.27569416    16
STARLINK-35989          
1 66819C 25278AE  26091.54562500  .00052909  00000+0  19155-2 0   919
2 66819  43.0031 345.3543 0001506 269.1120  95.9504 15.27566752    12
STARLINK-35966          
1 66821C 25280A   26091.54631944 -.00007465  00000+0 -62544-3 0   914
2 66821  70.0009 277.0117 0002818 266.5299 138.3994 14.98344064    15
STARLINK-35958          
1 66822C 25280B   26091.60256944 -.00032832  00000+0 -27511-2 0   915
2 66822  70.0003 276.6685 0002508 265.3073 263.0285 14.98353828    15
STARLINK-35957          
1 66823C 25280C   26091.61576389 -.00038307  00000+0 -32096-2 0   912
2 66823  70.0006 276.5341 0002820 268.3077  61.2126 14.98358340    17
STARLINK-35896          
1 66824C 25280D   26091.57270833 -.00022030  00000+0 -18458-2 0   915
2 66824  70.0003 276.8464 0002525 264.7351  12.5282 14.98352416    11
STARLINK-35476          
1 66825C 25280E   26091.67756944 -.00047271  00000+0 -39611-2 0   917
2 66825  70.0005 276.6307 0003212 269.2183 168.4903 14.98358137    12
STARLINK-35898          
1 66826C 25280F   26091.56020833 -.00016078  00000+0 -13471-2 0   914
2 66826  70.0007 276.6235 0002786 266.8650 168.0892 14.98348844    19
STARLINK-35959          
1 66827C 25280G   26091.67270833 -.00045888  00000+0 -38456-2 0   915
2 66827  70.0003 276.5406 0002502 266.7193 234.8180 14.98355100    17
STARLINK-35982          
1 66828C 25280H   26091.60951389 -.00037787  00000+0 -31658-2 0   917
2 66828  70.0005 276.7756 0002640 264.1432 189.0750 14.98361628    17
STARLINK-36084          
1 66829C 25280J   26091.58590278 -.00026071  00000+0 -21844-2 0   911
2 66829  70.0003 276.6601 0002974 266.0081 217.4704 14.98351491    17
STARLINK-35881          
1 66830C 25280K   26091.61229167 -.00039106  00000+0 -32767-2 0   912
2 66830  70.0010 276.8202 0001502 271.8639 151.3289 14.98359605    14
STARLINK-35788          
1 66831C 25280L   26091.67131944 -.00046414  00000+0 -38895-2 0   912
2 66831  70.0006 276.3686 0002647 269.1457  22.4690 14.98356656    17
STARLINK-35768          
1 66832C 25280M   26091.54770833 -.00008887  00000+0 -74459-3 0   914
2 66832  70.0004 276.8804 0001787 261.5275 263.4371 14.98345804    17
STARLINK-35858          
1 66833C 25280N   26091.65881944 -.00048876  00000+0 -40942-2 0   914
2 66833  70.0003 276.5010 0002979 268.9878 225.1292 14.98372415    12
STARLINK-35840          
1 66834C 25280P   26091.61437500 -.00038976  00000+0 -32656-2 0   919
2 66834  70.0010 276.4616 0002949 268.0031 121.5534 14.98359124    11
STARLINK-35890          
1 66835C 25280Q   26091.63659722 -.00039951  00000+0 -33478-2 0   911
2 66835  70.0002 276.6052 0002621 266.1168  63.1992 14.98354836    10
STARLINK-35838          
1 66836C 25280R   26091.57131944 -.00018478  00000+0 -15481-2 0   911
2 66836  70.0003 276.6716 0002982 267.0194 160.3180 14.98350509    10
STARLINK-35729          
1 66837C 25280S   26091.60187500 -.00035389  00000+0 -29650-2 0   918
2 66837  70.0009 276.8702 0003170 266.9183  76.7000 14.98357624    16
